{
  "status": "success",
  "hasErrors": false,
  "message": "",
  "length": 155,
  "payload": [
    {
      "_index": "tle",
      "_type": "_doc",
      "_id": "v_dRtnYBwxzt-ZlwllaK",
      "_score": 9.328143,
      "_source": {
        "right_ascension": "25.0654",
        "anomaly": "123.8961",
        "calc_anomaly": 123.8961,
        "satellite_number": 10976,
        "calc_mean_motion": 2.22310393,
        "ephemeris": "0",
        "set_number": "779",
        "calc_ballistic_coefficient": -0.00000175,
        "epoch": "16005.18106637",
        "international_designator": "78068B",
        "calc_inclination": 21.8985,
        "perigee": "293.9494",
        "revolution_number": "30448",
        "line_number": 148767,
        "calc_perigee": 293.9494,
        "drag": "47555-3",
        "text": "1 10976U 78068B   16005.18106637 -.00000175  00000-0  47555-3 0  7795\n2 10976  21.8985  25.0654 7180461 293.9494 123.8961  2.22310393304481",
        "calc_drag": 0.00047555,
        "timestamp": "2016-01-05 04:20:44",
        "inclination": "21.8985",
        "eccentricity": "7180461",
        "classification": "U",
        "calc_right_ascension": 25.0654,
        "calc_mean_motion_2": 0,
        "ballistic_coefficient": "-.00000175",
        "filename": "tle2016.txt",
        "calc_eccentricity": 0.7180461,
        "mean_motion": "2.22310393",
        "mean_motion_2": "00000-0"
      }
    },
    {
      "_index": "tle",
      "_type": "_doc",
      "_id": "nPhctnYBwxzt-Zlw-gs-",
      "_score": 9.328143,
      "_source": {
        "right_ascension": "258.7456",
        "anomaly": "45.9742",
        "calc_anomaly": 45.9742,
        "satellite_number": 10976,
        "calc_mean_motion": 2.2230476,
        "ephemeris": "0",
        "set_number": "36",
        "calc_ballistic_coefficient": -8.1e-7,
        "epoch": "17007.49484492",
        "international_designator": "78068B",
        "calc_inclination": 21.5768,
        "perigee": "158.8360",
        "revolution_number": "31267",
        "line_number": 233771,
        "calc_perigee": 158.836,
        "drag": "-38732-3",
        "text": "1 10976U 78068B   17007.49484492 -.00000081  00000-0 -38732-3 0   360\n2 10976  21.5768 258.7456 7167198 158.8360  45.9742  2.22304760312677",
        "calc_drag": -0.00038732,
        "timestamp": "2017-01-07 11:52:34",
        "inclination": "21.5768",
        "eccentricity": "7167198",
        "classification": "U",
        "calc_right_ascension": 258.7456,
        "calc_mean_motion_2": 0,
        "ballistic_coefficient": "-.00000081",
        "filename": "tle2017.txt",
        "calc_eccentricity": 0.7167198,
        "mean_motion": "2.22304760",
        "mean_motion_2": "00000-0"
      }
    },
    {
      "_index": "tle",
      "_type": "_doc",
      "_id": "22lhtnYBAz3ao6c9XghQ",
      "_score": 9.328143,
      "_source": {
        "right_ascension": "259.9782",
        "anomaly": "22.2838",
        "calc_anomaly": 22.2838,
        "satellite_number": 10976,
        "calc_mean_motion": 2.22305082,
        "ephemeris": "0",
        "set_number": "34",
        "calc_ballistic_coefficient": -0.00000152,
        "epoch": "17003.86654601",
        "international_designator": "78068B",
        "calc_inclination": 21.582,
        "perigee": "156.6277",
        "revolution_number": "31259",
        "line_number": 107393,
        "calc_perigee": 156.6277,
        "drag": "-99837-3",
        "text": "1 10976U 78068B   17003.86654601 -.00000152  00000-0 -99837-3 0   348\n2 10976  21.5820 259.9782 7167050 156.6277  22.2838  2.22305082312594",
        "calc_drag": -0.00099837,
        "timestamp": "2017-01-03 20:47:49",
        "inclination": "21.5820",
        "eccentricity": "7167050",
        "classification": "U",
        "calc_right_ascension": 259.9782,
        "calc_mean_motion_2": 0,
        "ballistic_coefficient": "-.00000152",
        "filename": "tle2017.txt",
        "calc_eccentricity": 0.716705,
        "mean_motion": "2.22305082",
        "mean_motion_2": "00000-0"
      }
    },
    {
      "_index": "tle",
      "_type": "_doc",
      "_id": "AWlhtnYBAz3ao6c99ByH",
      "_score": 9.328143,
      "_source": {
        "right_ascension": "260.2971",
        "anomaly": "350.6471",
        "calc_anomaly": 350.6471,
        "satellite_number": 10976,
        "calc_mean_motion": 2.22305143,
        "ephemeris": "0",
        "set_number": "000",
        "calc_ballistic_coefficient": -0.00000144,
        "epoch": "17002.92734177",
        "international_designator": "78068B",
        "calc_inclination": 21.5833,
        "perigee": "156.0564",
        "revolution_number": "3094",
        "line_number": 87643,
        "calc_perigee": 156.0564,
        "drag": "-91206-3",
        "text": "1 10976U 78068B   17002.92734177 -.00000144  00000-0 -91206-3 0    07\n2 10976  21.5833 260.2971 7167032 156.0564 350.6471  2.22305143 30941",
        "calc_drag": -0.00091206,
        "timestamp": "2017-01-02 22:15:22",
        "inclination": "021.5833",
        "eccentricity": "7167032",
        "classification": "U",
        "calc_right_ascension": 260.2971,
        "calc_mean_motion_2": 0,
        "ballistic_coefficient": "-.00000144",
        "filename": "tle2017.txt",
        "calc_eccentricity": 0.7167032,
        "mean_motion": "02.22305143",
        "mean_motion_2": "+00000-0"
      }
    },
    {
      "_index": "tle",
      "_type": "_doc",
      "_id": "N2lktnYBAz3ao6c9MEXT",
      "_score": 9.328143,
      "_source": {
        "right_ascension": "260.9040",
        "anomaly": "000.4815",
        "calc_anomaly": 0.4815,
        "satellite_number": 10976,
        "calc_mean_motion": 2.22305197,
        "ephemeris": "0",
        "set_number": "000",
        "calc_ballistic_coefficient": -0.00000113,
        "epoch": "17001.14028529",
        "international_designator": "78068B",
        "calc_inclination": 21.5859,
        "perigee": "154.9694",
        "revolution_number": "3093",
        "line_number": 54595,
        "calc_perigee": 154.9694,
        "drag": "-64853-3",
        "text": "1 10976U 78068B   17001.14028529 -.00000113  00000-0 -64853-3 0    01\n2 10976  21.5859 260.9040 7167037 154.9694   0.4815  2.22305197 30939",
        "calc_drag": -0.00064853,
        "timestamp": "2017-01-01 03:22:00",
        "inclination": "021.5859",
        "eccentricity": "7167037",
        "classification": "U",
        "calc_right_ascension": 260.904,
        "calc_mean_motion_2": 0,
        "ballistic_coefficient": "-.00000113",
        "filename": "tle2017.txt",
        "calc_eccentricity": 0.7167037,
        "mean_motion": "02.22305197",
        "mean_motion_2": "+00000-0"
      }
    },
    {
      "_index": "tle",
      "_type": "_doc",
      "_id": "JGlptnYBAz3ao6c9CY0r",
      "_score": 9.328143,
      "_source": {
        "right_ascension": "132.0797",
        "anomaly": "007.3760",
        "calc_anomaly": 7.376,
        "satellite_number": 10976,
        "calc_mean_motion": 2.22309567,
        "ephemeris": "0",
        "set_number": "000",
        "calc_ballistic_coefficient": -9.8e-7,
        "epoch": "18004.55245520",
        "international_designator": "78068B",
        "calc_inclination": 21.4865,
        "perigee": "023.3707",
        "revolution_number": "3175",
        "line_number": 210861,
        "calc_perigee": 23.3707,
        "drag": "+46466-3",
        "text": "1 10976U 78068B   18004.55245520 -.00000098  00000-0  46466-3 0    03\n2 10976  21.4865 132.0797 7160409  23.3707   7.3760  2.22309567 31754",
        "calc_drag": 0.00046466,
        "timestamp": "2018-01-04 13:15:32",
        "inclination": "021.4865",
        "eccentricity": "7160409",
        "classification": "U",
        "calc_right_ascension": 132.0797,
        "calc_mean_motion_2": 0,
        "ballistic_coefficient": "-.00000098",
        "filename": "tle2018.txt",
        "calc_eccentricity": 0.7160409,
        "mean_motion": "02.22309567",
        "mean_motion_2": "+00000-0"
      }
    },
    {
      "_index": "tle",
      "_type": "_doc",
      "_id": "NvlstnYBwxzt-ZlwjGB0",
      "_score": 9.328143,
      "_source": {
        "right_ascension": "133.1492",
        "anomaly": "001.8195",
        "calc_anomaly": 1.8195,
        "satellite_number": 10976,
        "calc_mean_motion": 2.22309509,
        "ephemeris": "0",
        "set_number": "000",
        "calc_ballistic_coefficient": -0.00000134,
        "epoch": "18001.39671748",
        "international_designator": "78068B",
        "calc_inclination": 21.4843,
        "perigee": "021.4536",
        "revolution_number": "3174",
        "line_number": 105289,
        "calc_perigee": 21.4536,
        "drag": "-15841-4",
        "text": "1 10976U 78068B   18001.39671748 -.00000134  00000-0 -15841-4 0    03\n2 10976  21.4843 133.1492 7160391  21.4536   1.8195  2.22309509 31749",
        "calc_drag": -0.000015841,
        "timestamp": "2018-01-01 09:31:16",
        "inclination": "021.4843",
        "eccentricity": "7160391",
        "classification": "U",
        "calc_right_ascension": 133.1492,
        "calc_mean_motion_2": 0,
        "ballistic_coefficient": "-.00000134",
        "filename": "tle2018.txt",
        "calc_eccentricity": 0.7160391,
        "mean_motion": "02.22309509",
        "mean_motion_2": "+00000-0"
      }
    }
  ]
}